ONEWEB-0525             
1 54143U 22138AG  23284.53265519  .00000042  00000+0  72483-4 0  9991
2 54143  87.9213 139.9574 0002050  75.4519 284.6841 13.19727100 47617
ONEWEB-0526             
1 54144U 22138AH  23284.56582155  .00000085  00000+0  18023-3 0  9999
2 54144  87.9210 139.9508 0001709  73.3477 286.7843 13.19717322 47599
ONEWEB-0529             
1 54145U 22138AJ  23284.87224327  .00000003  00000+0 -25700-4 0  9990
2 54145  87.9210 139.8883 0002059  71.5570 288.5786 13.19723565 48524
ONEWEB-0531             
1 54146U 22138AK  23284.54621980  .00000149  00000+0  33521-3 0  9990
2 54146  87.9191 109.4359 0000560  82.1271 277.9926 13.20771610 49991
ONEWEB-0535             
1 54147U 22138AL  23284.82961070 -.00000176  00000+0 -47313-3 0  9995
2 54147  87.9210 139.8977 0001436  86.8396 273.2901 13.19728443 48534
ONEWEB-0536             
1 54148U 22138AM  23284.76084340  .00000071  00000+0  14237-3 0  9996
2 54148  87.9192 109.4430 0001074 130.0267 230.0960 13.20771607 50887
GSLV R/B                
1 54149U 22138AN  23284.53009604  .00004445  00000+0  46640-3 0  9994
2 54149  87.3752 100.0918 0026991  92.8936 267.5381 14.89031140 52617
ONEWEB-0527             
1 54642U 22166A   23284.50818881  .00000099  00000+0  20819-3 0  9996
2 54642  87.9170  79.0534 0001579  87.0781 273.0533 13.21826673 42116
